start=new Date('2023-06-14T00:00:00.000Z').valueOf();
sats=[{"FILE":"3932371","PERIOD":"95.589","REF_FRAME":"TEME","EPHEMERIS_TYPE":"0","SEMIMAJOR_AXIS":"6925.220","MEAN_MOTION":"15.06441800","OBJECT_ID":"2020-057AY","APOAPSIS":"548.016","TIME_SYSTEM":"UTC","LAUNCH_DATE":"2020-08-18","MEAN_MOTION_DDOT":"0.0000000000000","NORAD_CAT_ID":"46163","COUNTRY_CODE":"US","BSTAR":"0.00214120000000","EPOCH":"2023-06-13T19:39:45.532800","TLE_LINE1":"1 46163U 20057AY  23164.81927700  .00031792  00000-0  21412-2 0  9998","OBJECT_NAME":"STARLINK-1610","MEAN_ANOMALY":"256.3882","CENTER_NAME":"EARTH","RA_OF_ASC_NODE":"85.2089","INCLINATION":"53.0547","MEAN_ELEMENT_THEORY":"SGP4","GP_ID":"233868813","MEAN_MOTION_DOT":"0.00031792","OBJECT_TYPE":"PAYLOAD","RCS_SIZE":"LARGE","REV_AT_EPOCH":"15592","SITE":"AFETR","TLE_LINE2":"2 46163  53.0547  85.2089 0001343 103.7256 256.3882 15.06441800155928","ECCENTRICITY":"0.00013430","PERIAPSIS":"546.155","CLASSIFICATION_TYPE":"U","ARG_OF_PERICENTER":"103.7256","ELEMENT_SET_NO":"999","DECAY_DATE":null},{"GP_ID":"233869062","MEAN_MOTION_DOT":"0.00015219","MEAN_ELEMENT_THEORY":"SGP4","INCLINATION":"53.0538","REV_AT_EPOCH":"15718","RCS_SIZE":"LARGE","OBJECT_TYPE":"PAYLOAD","ECCENTRICITY":"0.00011730","TLE_LINE2":"2 46164  53.0538  85.2271 0001173  97.5532 262.5590 15.06400749157182","SITE":"AFETR","DECAY_DATE":null,"ELEMENT_SET_NO":"999","PERIAPSIS":"546.399","ARG_OF_PERICENTER":"97.5532","CLASSIFICATION_TYPE":"U","CENTER_NAME":"EARTH","RA_OF_ASC_NODE":"85.2271","TIME_SYSTEM":"UTC","APOAPSIS":"548.024","MEAN_MOTION_DDOT":"0.0000000000000","LAUNCH_DATE":"2020-08-18","BSTAR":"0.00103840000000","EPOCH":"2023-06-13T19:34:28.429248","NORAD_CAT_ID":"46164","COUNTRY_CODE":"US","MEAN_ANOMALY":"262.5590","TLE_LINE1":"1 46164U 20057AZ  23164.81560682  .00015219  00000-0  10384-2 0  9993","OBJECT_NAME":"STARLINK-1612","PERIOD":"95.592","REF_FRAME":"TEME","FILE":"3932371","EPHEMERIS_TYPE":"0","MEAN_MOTION":"15.06400749","OBJECT_ID":"2020-057AZ","SEMIMAJOR_AXIS":"6925.346"},{"TLE_LINE1":"1 46165U 20057BA  23164.75884205  .00017456  00000-0  56080-3 0  9996","MEAN_ANOMALY":"44.0381","OBJECT_NAME":"STARLINK-1613","EPOCH":"2023-06-13T18:12:43.953120","BSTAR":"0.00056080000000","NORAD_CAT_ID":"46165","COUNTRY_CODE":"US","MEAN_MOTION_DDOT":"0.0000000000000","LAUNCH_DATE":"2020-08-18","TIME_SYSTEM":"UTC","APOAPSIS":"469.539","MEAN_MOTION":"15.32388912","OBJECT_ID":"2020-057BA","SEMIMAJOR_AXIS":"6846.824","EPHEMERIS_TYPE":"0","PERIOD":"93.971","REF_FRAME":"TEME","FILE":"3932371","DECAY_DATE":null,"ELEMENT_SET_NO":"999","CLASSIFICATION_TYPE":"U","PERIAPSIS":"467.839","ARG_OF_PERICENTER":"316.0520","ECCENTRICITY":"0.00012410","TLE_LINE2":"2 46165  53.0625  82.2329 0001241 316.0520  44.0381 15.32388912155975","SITE":"AFETR","REV_AT_EPOCH":"15597","RCS_SIZE":"LARGE","OBJECT_TYPE":"PAYLOAD","MEAN_MOTION_DOT":"0.00017456","GP_ID":"233870315","INCLINATION":"53.0625","MEAN_ELEMENT_THEORY":"SGP4","RA_OF_ASC_NODE":"82.2329","CENTER_NAME":"EARTH"},{"COUNTRY_CODE":"US","NORAD_CAT_ID":"46166","BSTAR":"0.00005524900000","EPOCH":"2023-06-13T20:48:45.901152","MEAN_ANOMALY":"254.8315","TLE_LINE1":"1 46166U 20057BB  23164.86719793  .00000542  00000-0  55249-4 0  9993","OBJECT_NAME":"STARLINK-1615","TIME_SYSTEM":"UTC","APOAPSIS":"548.055","LAUNCH_DATE":"2020-08-18","MEAN_MOTION_DDOT":"0.0000000000000","MEAN_MOTION":"15.06396437","OBJECT_ID":"2020-057BB","SEMIMAJOR_AXIS":"6925.359","FILE":"3932371","REF_FRAME":"TEME","PERIOD":"95.592","EPHEMERIS_TYPE":"0","TLE_LINE2":"2 46166  53.0549 124.9928 0001199 105.2806 254.8315 15.06396437155371","SITE":"AFETR","ECCENTRICITY":"0.00011990","CLASSIFICATION_TYPE":"U","PERIAPSIS":"546.394","ARG_OF_PERICENTER":"105.2806","ELEMENT_SET_NO":"999","DECAY_DATE":null,"INCLINATION":"53.0549","MEAN_ELEMENT_THEORY":"SGP4","MEAN_MOTION_DOT":"0.00000542","GP_ID":"233870562","OBJECT_TYPE":"PAYLOAD","RCS_SIZE":"LARGE","REV_AT_EPOCH":"15537","RA_OF_ASC_NODE":"124.9928","CENTER_NAME":"EARTH"},{"TIME_SYSTEM":"UTC","APOAPSIS":"548.205","MEAN_MOTION_DDOT":"0.0000000000000","LAUNCH_DATE":"2020-08-18","EPOCH":"2023-06-13T21:10:00.169824","BSTAR":"0.00004125800000","COUNTRY_CODE":"US","NORAD_CAT_ID":"46167","OBJECT_NAME":"STARLINK-1626","TLE_LINE1":"1 46167U 20057BC  23164.88194641  .00000333  00000-0  41258-4 0  9998","MEAN_ANOMALY":"273.4856","PERIOD":"95.592","REF_FRAME":"TEME","FILE":"3932371","EPHEMERIS_TYPE":"0","OBJECT_ID":"2020-057BC","MEAN_MOTION":"15.06398416","SEMIMAJOR_AXIS":"6925.353","GP_ID":"233869314","MEAN_MOTION_DOT":"0.00000333","INCLINATION":"53.0552","MEAN_ELEMENT_THEORY":"SGP4","REV_AT_EPOCH":"15537","RCS_SIZE":"LARGE","OBJECT_TYPE":"PAYLOAD","ECCENTRICITY":"0.00014250","TLE_LINE2":"2 46167  53.0552 124.9315 0001425  86.6296 273.4856 15.06398416155379","SITE":"AFETR","ELEMENT_SET_NO":"999","DECAY_DATE":null,"PERIAPSIS":"546.232","ARG_OF_PERICENTER":"86.6296","CLASSIFICATION_TYPE":"U","CENTER_NAME":"EARTH","RA_OF_ASC_NODE":"124.9315"},{"OBJECT_NAME":"STARLINK-1627","TLE_LINE1":"1 46168U 20057BD  23164.86076887  .00020616  00000-0  13983-2 0  9996","MEAN_ANOMALY":"262.7949","NORAD_CAT_ID":"46168","COUNTRY_CODE":"US","BSTAR":"0.00139830000000","EPOCH":"2023-06-13T20:39:30.430368","LAUNCH_DATE":"2020-08-18","MEAN_MOTION_DDOT":"0.0000000000000","TIME_SYSTEM":"UTC","APOAPSIS":"548.078","OBJECT_ID":"2020-057BD","MEAN_MOTION":"15.06414787","SEMIMAJOR_AXIS":"6925.303","EPHEMERIS_TYPE":"0","FILE":"3932371","PERIOD":"95.591","REF_FRAME":"TEME","PERIAPSIS":"546.259","CLASSIFICATION_TYPE":"U","ARG_OF_PERICENTER":"97.3189","DECAY_DATE":null,"ELEMENT_SET_NO":"999","TLE_LINE2":"2 46168  53.0539  75.1099 0001313  97.3189 262.7949 15.06414787156068","SITE":"AFETR","ECCENTRICITY":"0.00013130","OBJECT_TYPE":"PAYLOAD","REV_AT_EPOCH":"15606","RCS_SIZE":"LARGE","INCLINATION":"53.0539","MEAN_ELEMENT_THEORY":"SGP4","MEAN_MOTION_DOT":"0.00020616","GP_ID":"233869563","RA_OF_ASC_NODE":"75.1099","CENTER_NAME":"EARTH"},{"MEAN_ELEMENT_THEORY":"SGP4","INCLINATION":"53.0520","GP_ID":"233806416","MEAN_MOTION_DOT":"0.00000947","OBJECT_TYPE":"PAYLOAD","RCS_SIZE":"LARGE","REV_AT_EPOCH":"15586","TLE_LINE2":"2 46169  53.0520 128.5218 0001399  91.8312 268.2837 15.06388996155862","SITE":"AFETR","ECCENTRICITY":"0.00013990","PERIAPSIS":"546.278","CLASSIFICATION_TYPE":"U","ARG_OF_PERICENTER":"91.8312","DECAY_DATE":null,"ELEMENT_SET_NO":"999","CENTER_NAME":"EARTH","RA_OF_ASC_NODE":"128.5218","TIME_SYSTEM":"UTC","APOAPSIS":"548.216","LAUNCH_DATE":"2020-08-18","MEAN_MOTION_DDOT":"0.0000000000000","NORAD_CAT_ID":"46169","COUNTRY_CODE":"US","BSTAR":"0.00008251400000","EPOCH":"2023-06-13T04:00:21.881952","MEAN_ANOMALY":"268.2837","TLE_LINE1":"1 46169U 20057BE  23164.16691993  .00000947  00000-0  82514-4 0  9994","OBJECT_NAME":"STARLINK-1628","FILE":"3931638","REF_FRAME":"TEME","PERIOD":"95.593","EPHEMERIS_TYPE":"0","MEAN_MOTION":"15.06388996","OBJECT_ID":"2020-057BE","SEMIMAJOR_AXIS":"6925.382"},{"PERIAPSIS":"546.621","CLASSIFICATION_TYPE":"U","ARG_OF_PERICENTER":"92.7542","DECAY_DATE":null,"ELEMENT_SET_NO":"999","SITE":"AFETR","TLE_LINE2":"2 46171  53.0537 105.0362 0000823  92.7542 267.3541 15.06407376156901","ECCENTRICITY":"0.00008230","OBJECT_TYPE":"PAYLOAD","RCS_SIZE":"LARGE","REV_AT_EPOCH":"15690","MEAN_ELEMENT_THEORY":"SGP4","INCLINATION":"53.0537","GP_ID":"233870062","MEAN_MOTION_DOT":"0.00005321","RA_OF_ASC_NODE":"105.0362","CENTER_NAME":"EARTH","MEAN_ANOMALY":"267.3541","TLE_LINE1":"1 46171U 20057BG  23164.85798218  .00005321  00000-0  37577-3 0  9990","OBJECT_NAME":"STARLINK-1633","NORAD_CAT_ID":"46171","COUNTRY_CODE":"US","BSTAR":"0.00037577000000","EPOCH":"2023-06-13T20:35:29.660352","LAUNCH_DATE":"2020-08-18","MEAN_MOTION_DDOT":"0.0000000000000","APOAPSIS":"547.761","TIME_SYSTEM":"UTC","SEMIMAJOR_AXIS":"6925.326","MEAN_MOTION":"15.06407376","OBJECT_ID":"2020-057BG","EPHEMERIS_TYPE":"0","FILE":"3932371","PERIOD":"95.592","REF_FRAME":"TEME"},{"OBJECT_ID":"2020-057BH","MEAN_MOTION":"15.06405424","SEMIMAJOR_AXIS":"6925.332","FILE":"3932371","PERIOD":"95.592","REF_FRAME":"TEME","EPHEMERIS_TYPE":"0","COUNTRY_CODE":"US","NORAD_CAT_ID":"46172","BSTAR":"0.00105070000000","EPOCH":"2023-06-13T20:56:44.173536","MEAN_ANOMALY":"243.4513","TLE_LINE1":"1 46172U 20057BH  23164.87273349  .00015405  00000-0  10507-2 0  9993","OBJECT_NAME":"STARLINK-1635","TIME_SYSTEM":"UTC","APOAPSIS":"547.997","LAUNCH_DATE":"2020-08-18","MEAN_MOTION_DDOT":"0.0000000000000","RA_OF_ASC_NODE":"104.9727","CENTER_NAME":"EARTH","TLE_LINE2":"2 46172  53.0539 104.9727 0001155 116.6594 243.4513 15.06405424156905","SITE":"AFETR","ECCENTRICITY":"0.00011550","PERIAPSIS":"546.397","CLASSIFICATION_TYPE":"U","ARG_OF_PERICENTER":"116.6594","DECAY_DATE":null,"ELEMENT_SET_NO":"999","INCLINATION":"53.0539","MEAN_ELEMENT_THEORY":"SGP4","GP_ID":"233868814","MEAN_MOTION_DOT":"0.00015405","OBJECT_TYPE":"PAYLOAD","RCS_SIZE":"LARGE","REV_AT_EPOCH":"15690"},{"ELEMENT_SET_NO":"999","DECAY_DATE":null,"CLASSIFICATION_TYPE":"U","PERIAPSIS":"546.361","ARG_OF_PERICENTER":"93.8585","ECCENTRICITY":"0.00012200","SITE":"AFETR","TLE_LINE2":"2 46173  53.0553 124.7650 0001220  93.8585 266.2543 15.06402385155375","RCS_SIZE":"LARGE","REV_AT_EPOCH":"15537","OBJECT_TYPE":"PAYLOAD","MEAN_MOTION_DOT":"0.00000936","GP_ID":"233869063","MEAN_ELEMENT_THEORY":"SGP4","INCLINATION":"53.0553","RA_OF_ASC_NODE":"124.7650","CENTER_NAME":"EARTH","OBJECT_NAME":"STARLINK-1640","TLE_LINE1":"1 46173U 20057BJ  23164.91880098  .00000936  00000-0  81732-4 0  9997","MEAN_ANOMALY":"266.2543","EPOCH":"2023-06-13T22:03:04.404672","BSTAR":"0.00008173200000","COUNTRY_CODE":"US","NORAD_CAT_ID":"46173","MEAN_MOTION_DDOT":"0.0000000000000","LAUNCH_DATE":"2020-08-18","APOAPSIS":"548.051","TIME_SYSTEM":"UTC","SEMIMAJOR_AXIS":"6925.341","MEAN_MOTION":"15.06402385","OBJECT_ID":"2020-057BJ","EPHEMERIS_TYPE":"0","PERIOD":"95.592","REF_FRAME":"TEME","FILE":"3932371"}];
